[
    {
        "CCSDS_OMM_VERS": "3.0",
        "COMMENT": "GENERATED VIA SPACE-TRACK.ORG API",
        "CREATION_DATE": "2025-04-14T03:05:54",
        "ORIGINATOR": "18 SPCS",
        "OBJECT_NAME": "BEIDOU 3M22",
        "OBJECT_ID": "2019-078B",
        "CENTER_NAME": "EARTH",
        "REF_FRAME": "TEME",
        "TIME_SYSTEM": "UTC",
        "MEAN_ELEMENT_THEORY": "SGP4",
        "EPOCH": "2025-04-13T15:40:57.006912",
        "MEAN_MOTION": "1.86227920",
        "ECCENTRICITY": "0.00050960",
        "INCLINATION": "54.2939",
        "RA_OF_ASC_NODE": "314.8657",
        "ARG_OF_PERICENTER": "31.5230",
        "MEAN_ANOMALY": "328.5364",
        "EPHEMERIS_TYPE": "0",
        "CLASSIFICATION_TYPE": "U",
        "NORAD_CAT_ID": "44794",
        "ELEMENT_SET_NO": "999",
        "REV_AT_EPOCH": "3665",
        "BSTAR": "0.00000000000000",
        "MEAN_MOTION_DOT": "-0.00000067",
        "MEAN_MOTION_DDOT": "0.0000000000000",
        "SEMIMAJOR_AXIS": "27906.496",
        "PERIOD": "773.246",
        "APOAPSIS": "21542.582",
        "PERIAPSIS": "21514.140",
        "OBJECT_TYPE": "PAYLOAD",
        "RCS_SIZE": "LARGE",
        "COUNTRY_CODE": "PRC",
        "LAUNCH_DATE": "2019-11-23",
        "SITE": "XSC",
        "DECAY_DATE": null,
        "FILE": "4701263",
        "GP_ID": "285539768",
        "TLE_LINE0": "0 BEIDOU 3M22",
        "TLE_LINE1": "1 44794U 19078B   25103.65343758 -.00000067  00000-0  00000-0 0  9999",
        "TLE_LINE2": "2 44794  54.2939 314.8657 0005096  31.5230 328.5364  1.86227920 36658"
    }
]